{
  "type": "FeatureCollection",
  "features": [
    {
      "type": "Feature",
      "properties": {
        "norad_id": 29869,
        "name": "FENGYUN 1C DEB",
        "group": "fengyun-1c-debris",
        "lat": 26.270400179721012,
        "lon": 113.00883565802003,
        "alt_km": 829.7390819760658,
        "timestamp": "2025-12-23T22:42:33.256204+00:00",
        "meta_object_name": "FENGYUN 1C DEB",
        "meta_object_id": "1999-025FP",
        "meta_epoch": "2025-12-23T02:00:43.712064",
        "meta_mean_motion": 14.36909754,
        "meta_eccentricity": 0.00870527,
        "meta_inclination": 98.8745,
        "meta_ra_of_asc_node": 287.697,
        "meta_arg_of_pericenter": 340.6648,
        "meta_mean_anomaly": 34.0954,
        "meta_ephemeris_type": 0,
        "meta_classification_type": "U",
        "meta_norad_cat_id": 29869,
        "meta_element_set_no": 999,
        "meta_rev_at_epoch": 98969,
        "meta_bstar": 0.00039131821,
        "meta_mean_motion_dot": 1.161e-05,
        "meta_mean_motion_ddot": 0,
        "tle_line1": "1 29869U 99025FP  25357.08383926  .00001161  00000+0  39132-3 0  9999",
        "tle_line2": "2 29869  98.8745 287.6970 0087052 340.6648  34.0954 14.36909754989693"
      },
      "geometry": {
        "type": "Point",
        "coordinates": [
          113.00883565802003,
          26.270400179721012
        ]
      }
    },
    {
      "type": "Feature",
      "properties": {
        "norad_id": 29870,
        "name": "FENGYUN 1C DEB",
        "group": "fengyun-1c-debris",
        "lat": -44.28688511549924,
        "lon": 140.1862107836479,
        "alt_km": 764.9656114316667,
        "timestamp": "2025-12-23T22:42:33.256215+00:00",
        "meta_object_name": "FENGYUN 1C DEB",
        "meta_object_id": "1999-025FQ",
        "meta_epoch": "2025-12-23T04:56:24.338400",
        "meta_mean_motion": 14.28983374,
        "meta_eccentricity": 0.01204851,
        "meta_inclination": 98.4616,
        "meta_ra_of_asc_node": 327.8165,
        "meta_arg_of_pericenter": 161.5871,
        "meta_mean_anomaly": 215.3866,
        "meta_ephemeris_type": 0,
        "meta_classification_type": "U",
        "meta_norad_cat_id": 29870,
        "meta_element_set_no": 999,
        "meta_rev_at_epoch": 98743,
        "meta_bstar": 4.5328632e-05,
        "meta_mean_motion_dot": 8.1e-07,
        "meta_mean_motion_ddot": 0,
        "tle_line1": "1 29870U 99025FQ  25357.20583725  .00000081  00000+0  45329-4 0  9990",
        "tle_line2": "2 29870  98.4616 327.8165 0120485 161.5871 215.3866 14.28983374987434"
      },
      "geometry": {
        "type": "Point",
        "coordinates": [
          140.1862107836479,
          -44.28688511549924
        ]
      }
    },
    {
      "type": "Feature",
      "properties": {
        "norad_id": 29871,
        "name": "FENGYUN 1C DEB",
        "group": "fengyun-1c-debris",
        "lat": 5.2060826603915835,
        "lon": -49.16898345895112,
        "alt_km": 736.748958244727,
        "timestamp": "2025-12-23T22:42:33.256225+00:00",
        "meta_object_name": "FENGYUN 1C DEB",
        "meta_object_id": "1999-025FR",
        "meta_epoch": "2025-12-22T20:21:52.028640",
        "meta_mean_motion": 14.42693927,
        "meta_eccentricity": 0.00590317,
        "meta_inclination": 98.9744,
        "meta_ra_of_asc_node": 310.5013,
        "meta_arg_of_pericenter": 77.9681,
        "meta_mean_anomaly": 350.1752,
        "meta_ephemeris_type": 0,
        "meta_classification_type": "U",
        "meta_norad_cat_id": 29871,
        "meta_element_set_no": 999,
        "meta_rev_at_epoch": 98847,
        "meta_bstar": 0.00086848254,
        "meta_mean_motion_dot": 2.903e-05,
        "meta_mean_motion_ddot": 0,
        "tle_line1": "1 29871U 99025FR  25356.84851885  .00002903  00000+0  86848-3 0  9990",
        "tle_line2": "2 29871  98.9744 310.5013 0059031  77.9681 350.1752 14.42693927988475"
      },
      "geometry": {
        "type": "Point",
        "coordinates": [
          -49.16898345895112,
          5.2060826603915835
        ]
      }
    },
    {
      "type": "Feature",
      "properties": {
        "norad_id": 29872,
        "name": "FENGYUN 1C DEB",
        "group": "fengyun-1c-debris",
        "lat": 34.769402901411425,
        "lon": 7.774666425803709,
        "alt_km": 828.4328586908614,
        "timestamp": "2025-12-23T22:42:33.256236+00:00",
        "meta_object_name": "FENGYUN 1C DEB",
        "meta_object_id": "1999-025FS",
        "meta_epoch": "2025-12-22T06:29:40.353216",
        "meta_mean_motion": 14.38997176,
        "meta_eccentricity": 0.02349571,
        "meta_inclination": 98.3448,
        "meta_ra_of_asc_node": 11.9913,
        "meta_arg_of_pericenter": 284.8308,
        "meta_mean_anomaly": 72.6962,
        "meta_ephemeris_type": 0,
        "meta_classification_type": "U",
        "meta_norad_cat_id": 29872,
        "meta_element_set_no": 999,
        "meta_rev_at_epoch": 98729,
        "meta_bstar": 0.00054813839,
        "meta_mean_motion_dot": 2.282e-05,
        "meta_mean_motion_ddot": 0,
        "tle_line1": "1 29872U 99025FS  25356.27060594  .00002282  00000+0  54814-3 0  9995",
        "tle_line2": "2 29872  98.3448  11.9913 0234957 284.8308  72.6962 14.38997176987295"
      },
      "geometry": {
        "type": "Point",
        "coordinates": [
          7.774666425803709,
          34.769402901411425
        ]
      }
    },
    {
      "type": "Feature",
      "properties": {
        "norad_id": 29873,
        "name": "FENGYUN 1C DEB",
        "group": "fengyun-1c-debris",
        "lat": -80.40398965309276,
        "lon": -41.45267715443938,
        "alt_km": 918.7667041385275,
        "timestamp": "2025-12-23T22:42:33.256246+00:00",
        "meta_object_name": "FENGYUN 1C DEB",
        "meta_object_id": "1999-025FT",
        "meta_epoch": "2025-12-22T03:05:33.294048",
        "meta_mean_motion": 13.98150201,
        "meta_eccentricity": 0.00924946,
        "meta_inclination": 99.4412,
        "meta_ra_of_asc_node": 216.4744,
        "meta_arg_of_pericenter": 173.0891,
        "meta_mean_anomaly": 311.7072,
        "meta_ephemeris_type": 0,
        "meta_classification_type": "U",
        "meta_norad_cat_id": 29873,
        "meta_element_set_no": 999,
        "meta_rev_at_epoch": 96446,
        "meta_bstar": 0.00023093969,
        "meta_mean_motion_dot": 2.94e-06,
        "meta_mean_motion_ddot": 0,
        "tle_line1": "1 29873U 99025FT  25356.12885757  .00000294  00000+0  23094-3 0  9993",
        "tle_line2": "2 29873  99.4412 216.4744 0092494 173.0891 311.7072 13.98150201964465"
      },
      "geometry": {
        "type": "Point",
        "coordinates": [
          -41.45267715443938,
          -80.40398965309276
        ]
      }
    },
    {
      "type": "Feature",
      "properties": {
        "norad_id": 29874,
        "name": "FENGYUN 1C DEB",
        "group": "fengyun-1c-debris",
        "lat": -74.70854209382327,
        "lon": -72.9787041614797,
        "alt_km": 741.2974895690631,
        "timestamp": "2025-12-23T22:42:33.256257+00:00",
        "meta_object_name": "FENGYUN 1C DEB",
        "meta_object_id": "1999-025FU",
        "meta_epoch": "2025-12-21T15:52:33.544704",
        "meta_mean_motion": 14.28932875,
        "meta_eccentricity": 0.01043593,
        "meta_inclination": 98.3791,
        "meta_ra_of_asc_node": 252.2044,
        "meta_arg_of_pericenter": 325.0932,
        "meta_mean_anomaly": 92.1279,
        "meta_ephemeris_type": 0,
        "meta_classification_type": "U",
        "meta_norad_cat_id": 29874,
        "meta_element_set_no": 999,
        "meta_rev_at_epoch": 96975,
        "meta_bstar": 0.0023685425,
        "meta_mean_motion_dot": 6.307e-05,
        "meta_mean_motion_ddot": 0,
        "tle_line1": "1 29874U 99025FU  25355.66149936  .00006307  00000+0  23685-2 0  9990",
        "tle_line2": "2 29874  98.3791 252.2044 0104359 325.0932  92.1279 14.28932875969759"
      },
      "geometry": {
        "type": "Point",
        "coordinates": [
          -72.9787041614797,
          -74.70854209382327
        ]
      }
    },
    {
      "type": "Feature",
      "properties": {
        "norad_id": 29875,
        "name": "FENGYUN 1C DEB",
        "group": "fengyun-1c-debris",
        "lat": -33.3320466017902,
        "lon": 54.47403902181772,
        "alt_km": 788.9227034194828,
        "timestamp": "2025-12-23T22:42:33.256267+00:00",
        "meta_object_name": "FENGYUN 1C DEB",
        "meta_object_id": "1999-025FV",
        "meta_epoch": "2025-12-23T02:46:25.705056",
        "meta_mean_motion": 14.24879959,
        "meta_eccentricity": 0.00827388,
        "meta_inclination": 98.4035,
        "meta_ra_of_asc_node": 48.0996,
        "meta_arg_of_pericenter": 33.1989,
        "meta_mean_anomaly": 355.6093,
        "meta_ephemeris_type": 0,
        "meta_classification_type": "U",
        "meta_norad_cat_id": 29875,
        "meta_element_set_no": 999,
        "meta_rev_at_epoch": 98470,
        "meta_bstar": 2.8705557e-05,
        "meta_mean_motion_dot": 2.8e-07,
        "meta_mean_motion_ddot": 0,
        "tle_line1": "1 29875U 99025FV  25357.11557529  .00000028  00000+0  28706-4 0  9999",
        "tle_line2": "2 29875  98.4035  48.0996 0082738  33.1989 355.6093 14.24879959984706"
      },
      "geometry": {
        "type": "Point",
        "coordinates": [
          54.47403902181772,
          -33.3320466017902
        ]
      }
    }
  ]
}